KUIPER-00016            
1 63732U 25088J   25237.33371760  .00000876  00000+0  14451-3 0  9991
2 63732  51.8987 259.8819 0011111 139.3981 220.7812 14.79819922 18252
KUIPER-00018            
1 63733U 25088K   25237.72885120 -.00176304  00000+0 -11147-1 0  9994
2 63733  51.8798 248.8412 0011027 146.2475 213.9203 15.09354399 18446
KUIPER-00019            
1 63734U 25088L   25237.91670139 -.01404573  00000+0 -98351-1 0  9993
2 63734  51.8798 246.7831 0008082 167.8644   4.1357 15.07953257  5467
KUIPER-00020            
1 63735U 25088M   25237.91670139 -.01511309  00000+0 -13762+0 0  9991
2 63735  51.8905 249.5406 0008132 157.1893   4.7884 14.97845984  3207
KUIPER-00021            
1 63736U 25088N   25237.91670139  .00031504  00000+0  27397-2 0  9995
2 63736  51.8890 250.4262 0006787 136.4559  40.8596 14.96681952  4557
KUIPER-00023            
1 63737U 25088P   25237.91670139  .00028234  00000+0  27343-2 0  9993
2 63737  51.8919 251.6654 0009096 158.0854 145.7014 14.92485631  5825
KUIPER-00024            
1 63738U 25088Q   25237.91670139 -.00379174  00000+0 -18162-1 0  9996
2 63738  51.8829 243.5551 0002188 138.5958 116.5820 15.20211450  5914
KUIPER-00025            
1 63739U 25088R   25237.91670139 -.01128608  00000+0 -93375-1 0  9991
2 63739  51.9106 248.2683 0009060 143.1894 276.9185 15.01583618  5821
